NUSAT-26 (M SOMERVILLE) 
1 52184U 22033AD  26189.51856498  .00015893  00000+0  36115-3 0  9996
2 52184  97.2336 268.4440 0006614 157.2282 202.9260 15.43071021107995
NUSAT-33 (ALBANIA-2)    
1 55047U 23001AQ  26189.49362155  .00005798  00000+0  21366-3 0  9997
2 55047  97.3060 249.9921 0005403 343.8586  16.2481 15.28186382195565
NUSAT-35 (WILLIAMINA)   
1 55048U 23001AR  26189.47565228  .00008868  00000+0  25711-3 0  9991
2 55048  97.1842 241.6886 0011256  33.7360 326.4598 15.35702985195677
NUSAT-39 (TIKVAH ALPER) 
1 56201U 23054Z   26189.51753420  .00020239  00000+0  39173-3 0  9992
2 56201  97.3097  99.4793 0002933 357.4239   2.6996 15.47762587181758
NUSAT-38 (MARIA AGNESI) 
1 56202U 23054AA  26189.52593847  .00024766  00000+0  42831-3 0  9993
2 56202  97.3036 100.1970 0009961 354.7544   5.3602 15.50892674181812
NUSAT-37 (JOAN CLARKE)  
1 56203U 23054AB  26189.55550105  .00036813  00000+0  47024-3 0  9992
2 56203  97.2608  97.0618 0006891 163.0593 197.0895 15.59147950181973
NUSAT-40 (C SHOEMAKER)  
1 56943U 23084M   26188.37826609  .00108475  00000+0  56159-3 0  9993
2 56943  97.4860 336.5542 0004469 200.5358 159.5731 15.80743307171993
NUSAT-41 (C PAYNE-G)    
1 56944U 23084N   26189.51194552  .00007244  00000+0  25158-3 0  9993
2 56944  97.5537 326.5694 0005996 237.7480 122.3179 15.30058857171041
NUSAT-42 (M WONENBURGER)
1 56966U 23084AL  26189.52735652  .00015365  00000+0  31320-3 0  9991
2 56966  97.5737 334.5464 0006352 167.4841 192.6567 15.46306965171378
NUSAT-44 (MARIA MITCHE*)
1 59122U 24043AA  26188.41984721  .00007552  00000+0  26194-3 0  9996
2 59122  97.5474 328.9933 0006858 157.8047 202.3491 15.30080066130366
NUSAT-50 (NANCY ROMAN)  
1 60493U 24149AB  26189.48883135  .00006629  00000+0  22914-3 0  9991
2 60493  97.3780 270.6005 0004755 117.6351 242.5373 15.30240071105389
NUSAT-48 (HENRIETTA LE*)
1 60498U 24149AG  26189.47765808  .00005433  00000+0  18857-3 0  9994
2 60498  97.3911 270.8695 0004175 179.4325 180.6921 15.30197582105390
NUSAT-49 (KLARA DAN VO*)
1 60500U 24149AJ  26188.73515149  .00005637  00000+0  19495-3 0  9992
2 60500  97.3772 269.8843 0001709 186.1553 173.9667 15.30298285105271
NUSAT-45 (UZMASAT-1)    
1 62640U 25009AH  26189.50883691  .00006298  00000+0  21745-3 0  9996
2 62640  97.3585 270.5177 0001171 200.2862 159.8333 15.30305461 82185
NUSAT-52                
1 66692U 25276AC  26189.47924176  .00003498  00000+0  16559-3 0  9999
2 66692  97.4197 262.6753 0001877 323.6291  36.4817 15.19993937 33650
NUSAT-51 (YVONNE BRILL) 
1 66740U 25276CC  26189.48273264  .00004068  00000+0  18919-3 0  9995
2 66740  97.4202 262.8160 0001551 281.3172  78.7888 15.20514839 33662
