{"fetched_at":"2026-07-08T17:59:56.714Z","source":"https://celestrak.org/NORAD/elements/gp.php?NAME=NUSAT&FORMAT=JSON","constellation":"satellogic","records":[{"OBJECT_NAME":"NUSAT-26 (M SOMERVILLE)","OBJECT_ID":"2022-033AD","EPOCH":"2026-07-08T12:26:44.014272","CLASSIFICATION_TYPE":"U","MEAN_MOTION":15.43071021,"ECCENTRICITY":0.0006614,"INCLINATION":97.2336,"RA_OF_ASC_NODE":268.444,"ARG_OF_PERICENTER":157.2282,"MEAN_ANOMALY":202.926,"EPHEMERIS_TYPE":0,"NORAD_CAT_ID":52184,"ELEMENT_SET_NO":999,"REV_AT_EPOCH":10799,"BSTAR":0.00036115,"MEAN_MOTION_DOT":0.00015893,"MEAN_MOTION_DDOT":0},{"OBJECT_NAME":"NUSAT-33 (ALBANIA-2)","OBJECT_ID":"2023-001AQ","EPOCH":"2026-07-08T11:50:48.901920","CLASSIFICATION_TYPE":"U","MEAN_MOTION":15.28186382,"ECCENTRICITY":0.0005403,"INCLINATION":97.306,"RA_OF_ASC_NODE":249.9921,"ARG_OF_PERICENTER":343.8586,"MEAN_ANOMALY":16.2481,"EPHEMERIS_TYPE":0,"NORAD_CAT_ID":55047,"ELEMENT_SET_NO":999,"REV_AT_EPOCH":19556,"BSTAR":0.00021366,"MEAN_MOTION_DOT":0.00005798,"MEAN_MOTION_DDOT":0},{"OBJECT_NAME":"NUSAT-35 (WILLIAMINA)","OBJECT_ID":"2023-001AR","EPOCH":"2026-07-08T11:24:56.356992","CLASSIFICATION_TYPE":"U","MEAN_MOTION":15.35702985,"ECCENTRICITY":0.0011256,"INCLINATION":97.1842,"RA_OF_ASC_NODE":241.6886,"ARG_OF_PERICENTER":33.736,"MEAN_ANOMALY":326.4598,"EPHEMERIS_TYPE":0,"NORAD_CAT_ID":55048,"ELEMENT_SET_NO":999,"REV_AT_EPOCH":19567,"BSTAR":0.00025711,"MEAN_MOTION_DOT":0.00008868,"MEAN_MOTION_DDOT":0},{"OBJECT_NAME":"NUSAT-39 (TIKVAH ALPER)","OBJECT_ID":"2023-054Z","EPOCH":"2026-07-08T12:25:14.954880","CLASSIFICATION_TYPE":"U","MEAN_MOTION":15.47762587,"ECCENTRICITY":0.0002933,"INCLINATION":97.3097,"RA_OF_ASC_NODE":99.4793,"ARG_OF_PERICENTER":357.4239,"MEAN_ANOMALY":2.6996,"EPHEMERIS_TYPE":0,"NORAD_CAT_ID":56201,"ELEMENT_SET_NO":999,"REV_AT_EPOCH":18175,"BSTAR":0.00039173,"MEAN_MOTION_DOT":0.00020239,"MEAN_MOTION_DDOT":0},{"OBJECT_NAME":"NUSAT-38 (MARIA AGNESI)","OBJECT_ID":"2023-054AA","EPOCH":"2026-07-08T12:37:21.083808","CLASSIFICATION_TYPE":"U","MEAN_MOTION":15.50892674,"ECCENTRICITY":0.0009961,"INCLINATION":97.3036,"RA_OF_ASC_NODE":100.197,"ARG_OF_PERICENTER":354.7544,"MEAN_ANOMALY":5.3602,"EPHEMERIS_TYPE":0,"NORAD_CAT_ID":56202,"ELEMENT_SET_NO":999,"REV_AT_EPOCH":18181,"BSTAR":0.00042831,"MEAN_MOTION_DOT":0.00024766,"MEAN_MOTION_DDOT":0},{"OBJECT_NAME":"NUSAT-37 (JOAN CLARKE)","OBJECT_ID":"2023-054AB","EPOCH":"2026-07-08T13:19:55.290720","CLASSIFICATION_TYPE":"U","MEAN_MOTION":15.5914795,"ECCENTRICITY":0.0006891,"INCLINATION":97.2608,"RA_OF_ASC_NODE":97.0618,"ARG_OF_PERICENTER":163.0593,"MEAN_ANOMALY":197.0895,"EPHEMERIS_TYPE":0,"NORAD_CAT_ID":56203,"ELEMENT_SET_NO":999,"REV_AT_EPOCH":18197,"BSTAR":0.00047024,"MEAN_MOTION_DOT":0.00036813,"MEAN_MOTION_DDOT":0},{"OBJECT_NAME":"NUSAT-40 (C SHOEMAKER)","OBJECT_ID":"2023-084M","EPOCH":"2026-07-07T09:04:42.190176","CLASSIFICATION_TYPE":"U","MEAN_MOTION":15.80743307,"ECCENTRICITY":0.00044694,"INCLINATION":97.486,"RA_OF_ASC_NODE":336.5542,"ARG_OF_PERICENTER":200.5358,"MEAN_ANOMALY":159.5731,"EPHEMERIS_TYPE":0,"NORAD_CAT_ID":56943,"ELEMENT_SET_NO":999,"REV_AT_EPOCH":17199,"BSTAR":0.00056158547,"MEAN_MOTION_DOT":0.00108475,"MEAN_MOTION_DDOT":0},{"OBJECT_NAME":"NUSAT-41 (C PAYNE-G)","OBJECT_ID":"2023-084N","EPOCH":"2026-07-08T12:17:12.092928","CLASSIFICATION_TYPE":"U","MEAN_MOTION":15.30058857,"ECCENTRICITY":0.0005996,"INCLINATION":97.5537,"RA_OF_ASC_NODE":326.5694,"ARG_OF_PERICENTER":237.748,"MEAN_ANOMALY":122.3179,"EPHEMERIS_TYPE":0,"NORAD_CAT_ID":56944,"ELEMENT_SET_NO":999,"REV_AT_EPOCH":17104,"BSTAR":0.00025158,"MEAN_MOTION_DOT":0.00007244,"MEAN_MOTION_DDOT":0},{"OBJECT_NAME":"NUSAT-42 (M WONENBURGER)","OBJECT_ID":"2023-084AL","EPOCH":"2026-07-08T12:39:23.603328","CLASSIFICATION_TYPE":"U","MEAN_MOTION":15.46306965,"ECCENTRICITY":0.0006352,"INCLINATION":97.5737,"RA_OF_ASC_NODE":334.5464,"ARG_OF_PERICENTER":167.4841,"MEAN_ANOMALY":192.6567,"EPHEMERIS_TYPE":0,"NORAD_CAT_ID":56966,"ELEMENT_SET_NO":999,"REV_AT_EPOCH":17137,"BSTAR":0.0003132,"MEAN_MOTION_DOT":0.00015365,"MEAN_MOTION_DDOT":0},{"OBJECT_NAME":"NUSAT-44 (MARIA MITCHELL)","OBJECT_ID":"2024-043AA","EPOCH":"2026-07-07T10:04:34.798944","CLASSIFICATION_TYPE":"U","MEAN_MOTION":15.30080066,"ECCENTRICITY":0.00068589,"INCLINATION":97.5474,"RA_OF_ASC_NODE":328.9933,"ARG_OF_PERICENTER":157.8047,"MEAN_ANOMALY":202.3491,"EPHEMERIS_TYPE":0,"NORAD_CAT_ID":59122,"ELEMENT_SET_NO":999,"REV_AT_EPOCH":13036,"BSTAR":0.00026193877,"MEAN_MOTION_DOT":0.00007552,"MEAN_MOTION_DDOT":0},{"OBJECT_NAME":"NUSAT-50 (NANCY ROMAN)","OBJECT_ID":"2024-149AB","EPOCH":"2026-07-08T11:43:55.028640","CLASSIFICATION_TYPE":"U","MEAN_MOTION":15.30240071,"ECCENTRICITY":0.0004755,"INCLINATION":97.378,"RA_OF_ASC_NODE":270.6005,"ARG_OF_PERICENTER":117.6351,"MEAN_ANOMALY":242.5373,"EPHEMERIS_TYPE":0,"NORAD_CAT_ID":60493,"ELEMENT_SET_NO":999,"REV_AT_EPOCH":10538,"BSTAR":0.00022914,"MEAN_MOTION_DOT":0.00006629,"MEAN_MOTION_DDOT":0},{"OBJECT_NAME":"NUSAT-48 (HENRIETTA LEAVITT)","OBJECT_ID":"2024-149AG","EPOCH":"2026-07-08T11:27:49.658112","CLASSIFICATION_TYPE":"U","MEAN_MOTION":15.30197582,"ECCENTRICITY":0.0004175,"INCLINATION":97.3911,"RA_OF_ASC_NODE":270.8695,"ARG_OF_PERICENTER":179.4325,"MEAN_ANOMALY":180.6921,"EPHEMERIS_TYPE":0,"NORAD_CAT_ID":60498,"ELEMENT_SET_NO":999,"REV_AT_EPOCH":10539,"BSTAR":0.00018857,"MEAN_MOTION_DOT":0.00005433,"MEAN_MOTION_DDOT":0},{"OBJECT_NAME":"NUSAT-49 (KLARA DAN VON NEUMANN)","OBJECT_ID":"2024-149AJ","EPOCH":"2026-07-07T17:38:37.088736","CLASSIFICATION_TYPE":"U","MEAN_MOTION":15.30298285,"ECCENTRICITY":0.0001709,"INCLINATION":97.3772,"RA_OF_ASC_NODE":269.8843,"ARG_OF_PERICENTER":186.1553,"MEAN_ANOMALY":173.9667,"EPHEMERIS_TYPE":0,"NORAD_CAT_ID":60500,"ELEMENT_SET_NO":999,"REV_AT_EPOCH":10527,"BSTAR":0.00019495,"MEAN_MOTION_DOT":0.00005637,"MEAN_MOTION_DDOT":0},{"OBJECT_NAME":"NUSAT-45 (UZMASAT-1)","OBJECT_ID":"2025-009AH","EPOCH":"2026-07-08T12:12:43.509024","CLASSIFICATION_TYPE":"U","MEAN_MOTION":15.30305461,"ECCENTRICITY":0.0001171,"INCLINATION":97.3585,"RA_OF_ASC_NODE":270.5177,"ARG_OF_PERICENTER":200.2862,"MEAN_ANOMALY":159.8333,"EPHEMERIS_TYPE":0,"NORAD_CAT_ID":62640,"ELEMENT_SET_NO":999,"REV_AT_EPOCH":8218,"BSTAR":0.00021745,"MEAN_MOTION_DOT":0.00006298,"MEAN_MOTION_DDOT":0},{"OBJECT_NAME":"NUSAT-52","OBJECT_ID":"2025-276AC","EPOCH":"2026-07-08T11:30:06.488064","CLASSIFICATION_TYPE":"U","MEAN_MOTION":15.19993937,"ECCENTRICITY":0.0001877,"INCLINATION":97.4197,"RA_OF_ASC_NODE":262.6753,"ARG_OF_PERICENTER":323.6291,"MEAN_ANOMALY":36.4817,"EPHEMERIS_TYPE":0,"NORAD_CAT_ID":66692,"ELEMENT_SET_NO":999,"REV_AT_EPOCH":3365,"BSTAR":0.00016559,"MEAN_MOTION_DOT":0.00003498,"MEAN_MOTION_DDOT":0},{"OBJECT_NAME":"NUSAT-51 (YVONNE BRILL)","OBJECT_ID":"2025-276CC","EPOCH":"2026-07-08T11:35:08.100096","CLASSIFICATION_TYPE":"U","MEAN_MOTION":15.20514839,"ECCENTRICITY":0.0001551,"INCLINATION":97.4202,"RA_OF_ASC_NODE":262.816,"ARG_OF_PERICENTER":281.3172,"MEAN_ANOMALY":78.7888,"EPHEMERIS_TYPE":0,"NORAD_CAT_ID":66740,"ELEMENT_SET_NO":999,"REV_AT_EPOCH":3366,"BSTAR":0.00018919,"MEAN_MOTION_DOT":0.00004068,"MEAN_MOTION_DDOT":0}]}
